ALOS (DAICHI)           
1 28931U 06002A   26011.58667459  .00001369  00000+0  23873-3 0  9995
2 28931  98.1131 327.8721 0002093  94.5421 265.6024 14.69596539 65099
H-2A R/B                
1 28932U 06002B   26011.37683872  .00009929  00000+0  51230-3 0  9998
2 28932  98.2330 153.5639 0054679  76.6446 284.0873 15.15249306 85750
RESURS-DK 1             
1 29228U 06021A   26011.46344075  .00002612  00000+0  15640-3 0  9994
2 29228  69.9341  25.0098 0006190 233.8623 126.1971 15.12362044 78879
CZ-4B R/B               
1 29507U 06046C   26011.53664785  .00005485  00000+0  28287-3 0  9994
2 29507  97.5699  56.5947 0035254 105.0113 255.5026 15.16226954 51389
CZ-2C R/B               
1 31114U 07010B   26011.37908598  .00000126  00000+0  76532-4 0  9992
2 31114  98.3973 127.5387 0060117 100.7713 260.0239 14.20223858971585
COSMO-SKYMED 1          
1 31598U 07023A   26011.62158406  .00003273  00000+0  29679-3 0  9990
2 31598  97.8854 202.2224 0001499  78.3001 281.8388 14.96038162  6379
COSMOS 2428             
1 31792U 07029A   26011.61490149  .00000345  00000+0  21115-3 0  9998
2 31792  70.9393 323.1545 0005451 343.1663  16.9276 14.12907523956037
SL-16 R/B               
1 31793U 07029B   26011.16243404 -.00000162  00000+0 -59191-4 0  9994
2 31793  70.9770 293.3100 0002237 273.5206 187.7964 14.14825439957231
KORONAS-FOTON           
1 33504U 09003A   26011.35505706  .00012172  00000+0  28544-3 0  9996
2 33504  82.4316 335.4038 0011671  15.6438 344.5167 15.41852189936901
CZ-2C R/B               
1 37731U 11030B   26011.46773242  .00001303  00000+0  17110-3 0  9990
2 37731  97.8452 329.9248 0052775 174.9961 299.9837 14.81005221781623
H-2A R/B                
1 38341U 12025E   26011.49973467  .00003327  00000+0  30676-3 0  9997
2 38341  98.4635 334.0355 0045979 138.2822 222.1917 14.94662581739671
SHIJIAN-16 (SJ-16)      
1 39358U 13057A   26011.64174297  .00002828  00000+0  27999-3 0  9992
2 39358  74.9735 293.0712 0017802 250.8721 109.0540 14.92130365662997
