CCSDS_OMM_VERS = 2.0
CREATION_DATE  = 
ORIGINATOR     = 

OBJECT_NAME    = ALOS (DAICHI)
OBJECT_ID      = 2006-002A
CENTER_NAME    = EARTH
REF_FRAME      = TEME
TIME_SYSTEM    = UTC
MEAN_ELEMENT_THEORY = SGP/SGP4

EPOCH          = 2026-01-11T14:04:48.684576
MEAN_MOTION    = 14.69596539
ECCENTRICITY   = .00020935
INCLINATION    = 98.1131
RA_OF_ASC_NODE = 327.8721
ARG_OF_PERICENTER = 94.5421
MEAN_ANOMALY   = 265.6024

EPHEMERIS_TYPE = 0
CLASSIFICATION_TYPE = U
NORAD_CAT_ID   = 28931
ELEMENT_SET_NO = 999
REV_AT_EPOCH   = 6509
BSTAR          = .23872761E-3
MEAN_MOTION_DOT = .1369E-4
MEAN_MOTION_DDOT = 0

CCSDS_OMM_VERS = 2.0
CREATION_DATE  = 
ORIGINATOR     = 

OBJECT_NAME    = H-2A R/B
OBJECT_ID      = 2006-002B
CENTER_NAME    = EARTH
REF_FRAME      = TEME
TIME_SYSTEM    = UTC
MEAN_ELEMENT_THEORY = SGP/SGP4

EPOCH          = 2026-01-11T09:02:38.865408
MEAN_MOTION    = 15.15249306
ECCENTRICITY   = .00546791
INCLINATION    = 98.2330
RA_OF_ASC_NODE = 153.5639
ARG_OF_PERICENTER = 76.6446
MEAN_ANOMALY   = 284.0873

EPHEMERIS_TYPE = 0
CLASSIFICATION_TYPE = U
NORAD_CAT_ID   = 28932
ELEMENT_SET_NO = 999
REV_AT_EPOCH   = 8575
BSTAR          = .51229677E-3
MEAN_MOTION_DOT = .9929E-4
MEAN_MOTION_DDOT = 0

CCSDS_OMM_VERS = 2.0
CREATION_DATE  = 
ORIGINATOR     = 

OBJECT_NAME    = RESURS-DK 1
OBJECT_ID      = 2006-021A
CENTER_NAME    = EARTH
REF_FRAME      = TEME
TIME_SYSTEM    = UTC
MEAN_ELEMENT_THEORY = SGP/SGP4

EPOCH          = 2026-01-11T11:07:21.280800
MEAN_MOTION    = 15.12362044
ECCENTRICITY   = .00061902
INCLINATION    = 69.9341
RA_OF_ASC_NODE = 25.0098
ARG_OF_PERICENTER = 233.8623
MEAN_ANOMALY   = 126.1971

EPHEMERIS_TYPE = 0
CLASSIFICATION_TYPE = U
NORAD_CAT_ID   = 29228
ELEMENT_SET_NO = 999
REV_AT_EPOCH   = 7887
BSTAR          = .15640365E-3
MEAN_MOTION_DOT = .2612E-4
MEAN_MOTION_DDOT = 0

CCSDS_OMM_VERS = 2.0
CREATION_DATE  = 
ORIGINATOR     = 

OBJECT_NAME    = CZ-4B R/B
OBJECT_ID      = 2006-046C
CENTER_NAME    = EARTH
REF_FRAME      = TEME
TIME_SYSTEM    = UTC
MEAN_ELEMENT_THEORY = SGP/SGP4

EPOCH          = 2026-01-11T12:52:46.374240
MEAN_MOTION    = 15.16226954
ECCENTRICITY   = .00352541
INCLINATION    = 97.5699
RA_OF_ASC_NODE = 56.5947
ARG_OF_PERICENTER = 105.0113
MEAN_ANOMALY   = 255.5026

EPHEMERIS_TYPE = 0
CLASSIFICATION_TYPE = U
NORAD_CAT_ID   = 29507
ELEMENT_SET_NO = 999
REV_AT_EPOCH   = 5138
BSTAR          = .28286837E-3
MEAN_MOTION_DOT = .5485E-4
MEAN_MOTION_DDOT = 0

CCSDS_OMM_VERS = 2.0
CREATION_DATE  = 
ORIGINATOR     = 

OBJECT_NAME    = CZ-2C R/B
OBJECT_ID      = 2007-010B
CENTER_NAME    = EARTH
REF_FRAME      = TEME
TIME_SYSTEM    = UTC
MEAN_ELEMENT_THEORY = SGP/SGP4

EPOCH          = 2026-01-11T09:05:53.028672
MEAN_MOTION    = 14.20223858
ECCENTRICITY   = .00601172
INCLINATION    = 98.3973
RA_OF_ASC_NODE = 127.5387
ARG_OF_PERICENTER = 100.7713
MEAN_ANOMALY   = 260.0239

EPHEMERIS_TYPE = 0
CLASSIFICATION_TYPE = U
NORAD_CAT_ID   = 31114
ELEMENT_SET_NO = 999
REV_AT_EPOCH   = 97158
BSTAR          = .76531604E-4
MEAN_MOTION_DOT = .126E-5
MEAN_MOTION_DDOT = 0

CCSDS_OMM_VERS = 2.0
CREATION_DATE  = 
ORIGINATOR     = 

OBJECT_NAME    = COSMO-SKYMED 1
OBJECT_ID      = 2007-023A
CENTER_NAME    = EARTH
REF_FRAME      = TEME
TIME_SYSTEM    = UTC
MEAN_ELEMENT_THEORY = SGP/SGP4

EPOCH          = 2026-01-11T14:55:04.862784
MEAN_MOTION    = 14.96038162
ECCENTRICITY   = .00014993
INCLINATION    = 97.8854
RA_OF_ASC_NODE = 202.2224
ARG_OF_PERICENTER = 78.3001
MEAN_ANOMALY   = 281.8388

EPHEMERIS_TYPE = 0
CLASSIFICATION_TYPE = U
NORAD_CAT_ID   = 31598
ELEMENT_SET_NO = 999
REV_AT_EPOCH   = 637
BSTAR          = .29678611E-3
MEAN_MOTION_DOT = .3273E-4
MEAN_MOTION_DDOT = 0

CCSDS_OMM_VERS = 2.0
CREATION_DATE  = 
ORIGINATOR     = 

OBJECT_NAME    = COSMOS 2428
OBJECT_ID      = 2007-029A
CENTER_NAME    = EARTH
REF_FRAME      = TEME
TIME_SYSTEM    = UTC
MEAN_ELEMENT_THEORY = SGP/SGP4

EPOCH          = 2026-01-11T14:45:27.488736
MEAN_MOTION    = 14.12907523
ECCENTRICITY   = .00054517
INCLINATION    = 70.9393
RA_OF_ASC_NODE = 323.1545
ARG_OF_PERICENTER = 343.1663
MEAN_ANOMALY   = 16.9276

EPHEMERIS_TYPE = 0
CLASSIFICATION_TYPE = U
NORAD_CAT_ID   = 31792
ELEMENT_SET_NO = 999
REV_AT_EPOCH   = 95603
BSTAR          = .2111499E-3
MEAN_MOTION_DOT = .345E-5
MEAN_MOTION_DDOT = 0

CCSDS_OMM_VERS = 2.0
CREATION_DATE  = 
ORIGINATOR     = 

OBJECT_NAME    = SL-16 R/B
OBJECT_ID      = 2007-029B
CENTER_NAME    = EARTH
REF_FRAME      = TEME
TIME_SYSTEM    = UTC
MEAN_ELEMENT_THEORY = SGP/SGP4

EPOCH          = 2026-01-11T03:53:54.301056
MEAN_MOTION    = 14.14825439
ECCENTRICITY   = .00022372
INCLINATION    = 70.9770
RA_OF_ASC_NODE = 293.3100
ARG_OF_PERICENTER = 273.5206
MEAN_ANOMALY   = 187.7964

EPHEMERIS_TYPE = 0
CLASSIFICATION_TYPE = U
NORAD_CAT_ID   = 31793
ELEMENT_SET_NO = 999
REV_AT_EPOCH   = 95723
BSTAR          = -.59191051E-4
MEAN_MOTION_DOT = -.162E-5
MEAN_MOTION_DDOT = 0

CCSDS_OMM_VERS = 2.0
CREATION_DATE  = 
ORIGINATOR     = 

OBJECT_NAME    = KORONAS-FOTON
OBJECT_ID      = 2009-003A
CENTER_NAME    = EARTH
REF_FRAME      = TEME
TIME_SYSTEM    = UTC
MEAN_ELEMENT_THEORY = SGP/SGP4

EPOCH          = 2026-01-11T08:31:16.929984
MEAN_MOTION    = 15.41852189
ECCENTRICITY   = .00116715
INCLINATION    = 82.4316
RA_OF_ASC_NODE = 335.4038
ARG_OF_PERICENTER = 15.6438
MEAN_ANOMALY   = 344.5167

EPHEMERIS_TYPE = 0
CLASSIFICATION_TYPE = U
NORAD_CAT_ID   = 33504
ELEMENT_SET_NO = 999
REV_AT_EPOCH   = 93690
BSTAR          = .28544087E-3
MEAN_MOTION_DOT = .12172E-3
MEAN_MOTION_DDOT = 0

CCSDS_OMM_VERS = 2.0
CREATION_DATE  = 
ORIGINATOR     = 

OBJECT_NAME    = CZ-2C R/B
OBJECT_ID      = 2011-030B
CENTER_NAME    = EARTH
REF_FRAME      = TEME
TIME_SYSTEM    = UTC
MEAN_ELEMENT_THEORY = SGP/SGP4

EPOCH          = 2026-01-11T11:13:32.081088
MEAN_MOTION    = 14.81005221
ECCENTRICITY   = .00527756
INCLINATION    = 97.8452
RA_OF_ASC_NODE = 329.9248
ARG_OF_PERICENTER = 174.9961
MEAN_ANOMALY   = 299.9837

EPHEMERIS_TYPE = 0
CLASSIFICATION_TYPE = U
NORAD_CAT_ID   = 37731
ELEMENT_SET_NO = 999
REV_AT_EPOCH   = 78162
BSTAR          = .17110097E-3
MEAN_MOTION_DOT = .1303E-4
MEAN_MOTION_DDOT = 0

CCSDS_OMM_VERS = 2.0
CREATION_DATE  = 
ORIGINATOR     = 

OBJECT_NAME    = H-2A R/B
OBJECT_ID      = 2012-025E
CENTER_NAME    = EARTH
REF_FRAME      = TEME
TIME_SYSTEM    = UTC
MEAN_ELEMENT_THEORY = SGP/SGP4

EPOCH          = 2026-01-11T11:59:37.075488
MEAN_MOTION    = 14.94662581
ECCENTRICITY   = .00459799
INCLINATION    = 98.4635
RA_OF_ASC_NODE = 334.0355
ARG_OF_PERICENTER = 138.2822
MEAN_ANOMALY   = 222.1917

EPHEMERIS_TYPE = 0
CLASSIFICATION_TYPE = U
NORAD_CAT_ID   = 38341
ELEMENT_SET_NO = 999
REV_AT_EPOCH   = 73967
BSTAR          = .30676085E-3
MEAN_MOTION_DOT = .3327E-4
MEAN_MOTION_DDOT = 0

CCSDS_OMM_VERS = 2.0
CREATION_DATE  = 
ORIGINATOR     = 

OBJECT_NAME    = SHIJIAN-16 (SJ-16)
OBJECT_ID      = 2013-057A
CENTER_NAME    = EARTH
REF_FRAME      = TEME
TIME_SYSTEM    = UTC
MEAN_ELEMENT_THEORY = SGP/SGP4

EPOCH          = 2026-01-11T15:24:06.592608
MEAN_MOTION    = 14.92130365
ECCENTRICITY   = .00178026
INCLINATION    = 74.9735
RA_OF_ASC_NODE = 293.0712
ARG_OF_PERICENTER = 250.8721
MEAN_ANOMALY   = 109.0540

EPHEMERIS_TYPE = 0
CLASSIFICATION_TYPE = U
NORAD_CAT_ID   = 39358
ELEMENT_SET_NO = 999
REV_AT_EPOCH   = 66299
BSTAR          = .27998971E-3
MEAN_MOTION_DOT = .2828E-4
MEAN_MOTION_DDOT = 0

